HAWK-A                  
1 43765U 18099H   26191.44827113  .00004564  00000+0  18328-3 0  9994
2 43765  97.3905 243.3829 0034224 200.7420 159.2431 15.24925601416642
HAWK-B                  
1 43794U 18099AN  26191.76048903  .00004094  00000+0  17447-3 0  9992
2 43794  97.3954 243.0563 0030947 217.9222 141.9836 15.23083310416624
HAWK-C                  
1 43799U 18099AT  26191.56820876  .00005828  00000+0  20836-3 0  9994
2 43799  97.3884 244.5291 0039834 200.2244 159.7420 15.28444337417484
HAWK-2C                 
1 47502U 21006CT  26191.68848509  .00004473  00000+0  13411-3 0  9994
2 47502  97.2272 235.5314 0008570 113.7080 246.5063 15.34952670303107
HAWK-2A                 
1 47505U 21006CW  26191.69075319  .00004556  00000+0  13653-3 0  9999
2 47505  97.2314 236.2252 0008070 116.8897 243.3173 15.34967765303109
HAWK-2B                 
1 47508U 21006CZ  26191.55428394  .00005168  00000+0  15392-3 0  9994
2 47508  97.2184 234.3861 0008637 115.6136 244.6001 15.35093531303087
HAWK-3B                 
1 48931U 21059BE  26191.00679719  .00035395  00000+0  27709-3 0  9992
2 48931  97.6649  29.9062 0004089 217.8107 142.2868 15.71525502281435
HAWK-3C                 
1 48948U 21059BX  26191.00649202  .00037702  00000+0  29488-3 0  9994
2 48948  97.6774  35.6306 0004404 218.4113 141.6836 15.71533406281432
HAWK-3A                 
1 48957U 21059CG  26191.00637890  .00037305  00000+0  29181-3 0  9993
2 48957  97.6711  32.8165 0004344 219.9841 140.1101 15.71532739281439
HAWK-5C                 
1 52754U 22057Y   26191.38716225  .00014129  00000+0  23464-3 0  9990
2 52754  97.6609 352.5682 0003253   5.8200 354.3089 15.52214999229946
HAWK-5B                 
1 52756U 22057AA  26191.38697120  .00013217  00000+0  21964-3 0  9994
2 52756  97.6625 350.9203 0003914 352.3729   7.7463 15.52211827229949
HAWK-5A                 
1 52757U 22057AB  26191.77357306  .00012403  00000+0  20618-3 0  9998
2 52757  97.6616 352.1629 0003771 355.6586   4.4633 15.52220710230007
HAWK-6B                 
1 55324U 23011A   26191.46107780  .00003015  00000+0  13319-3 0  9996
2 55324  40.4970 216.3028 0003420 215.7887 144.2694 15.23128436191392
HAWK-6C                 
1 55326U 23011C   26191.52602110  .00003094  00000+0  13646-3 0  9992
2 55326  40.4958 212.7592 0003945 205.4892 154.5723 15.23130157191413
HAWK-6A                 
1 55327U 23011D   26191.46048786  .00002821  00000+0  12515-3 0  9990
2 55327  40.4966 214.7687 0003464 202.6314 157.4343 15.23128668191407
HAWK-7A                 
1 56191U 23054P   26191.75931181  .00003763  00000+0  14211-3 0  9990
2 56191  97.2675  78.4976 0001893 354.6549   5.4670 15.27603523180621
