{"fetched_at":"2026-07-11T06:35:29.699Z","source":"https://celestrak.org/NORAD/elements/gp.php?NAME=HAWK&FORMAT=JSON","constellation":"hawkeye-360","records":[{"OBJECT_NAME":"HAWK-A","OBJECT_ID":"2018-099H","EPOCH":"2026-07-10T10:45:30.625632","CLASSIFICATION_TYPE":"U","MEAN_MOTION":15.24925601,"ECCENTRICITY":0.00342248,"INCLINATION":97.3905,"RA_OF_ASC_NODE":243.3829,"ARG_OF_PERICENTER":200.742,"MEAN_ANOMALY":159.2431,"EPHEMERIS_TYPE":0,"NORAD_CAT_ID":43765,"ELEMENT_SET_NO":999,"REV_AT_EPOCH":41664,"BSTAR":0.00018327804,"MEAN_MOTION_DOT":0.00004564,"MEAN_MOTION_DDOT":0},{"OBJECT_NAME":"HAWK-B","OBJECT_ID":"2018-099AN","EPOCH":"2026-07-10T18:15:06.252192","CLASSIFICATION_TYPE":"U","MEAN_MOTION":15.2308331,"ECCENTRICITY":0.0030947,"INCLINATION":97.3954,"RA_OF_ASC_NODE":243.0563,"ARG_OF_PERICENTER":217.9222,"MEAN_ANOMALY":141.9836,"EPHEMERIS_TYPE":0,"NORAD_CAT_ID":43794,"ELEMENT_SET_NO":999,"REV_AT_EPOCH":41662,"BSTAR":0.00017447,"MEAN_MOTION_DOT":0.00004094,"MEAN_MOTION_DDOT":0},{"OBJECT_NAME":"HAWK-C","OBJECT_ID":"2018-099AT","EPOCH":"2026-07-10T13:38:13.236864","CLASSIFICATION_TYPE":"U","MEAN_MOTION":15.28444337,"ECCENTRICITY":0.0039834,"INCLINATION":97.3884,"RA_OF_ASC_NODE":244.5291,"ARG_OF_PERICENTER":200.2244,"MEAN_ANOMALY":159.742,"EPHEMERIS_TYPE":0,"NORAD_CAT_ID":43799,"ELEMENT_SET_NO":999,"REV_AT_EPOCH":41748,"BSTAR":0.00020836,"MEAN_MOTION_DOT":0.00005828,"MEAN_MOTION_DDOT":0},{"OBJECT_NAME":"HAWK-2C","OBJECT_ID":"2021-006CT","EPOCH":"2026-07-10T16:31:25.111776","CLASSIFICATION_TYPE":"U","MEAN_MOTION":15.3495267,"ECCENTRICITY":0.000857,"INCLINATION":97.2272,"RA_OF_ASC_NODE":235.5314,"ARG_OF_PERICENTER":113.708,"MEAN_ANOMALY":246.5063,"EPHEMERIS_TYPE":0,"NORAD_CAT_ID":47502,"ELEMENT_SET_NO":999,"REV_AT_EPOCH":30310,"BSTAR":0.00013411,"MEAN_MOTION_DOT":0.00004473,"MEAN_MOTION_DDOT":0},{"OBJECT_NAME":"HAWK-2A","OBJECT_ID":"2021-006CW","EPOCH":"2026-07-10T16:34:41.075616","CLASSIFICATION_TYPE":"U","MEAN_MOTION":15.34967765,"ECCENTRICITY":0.000807,"INCLINATION":97.2314,"RA_OF_ASC_NODE":236.2252,"ARG_OF_PERICENTER":116.8897,"MEAN_ANOMALY":243.3173,"EPHEMERIS_TYPE":0,"NORAD_CAT_ID":47505,"ELEMENT_SET_NO":999,"REV_AT_EPOCH":30310,"BSTAR":0.00013653,"MEAN_MOTION_DOT":0.00004556,"MEAN_MOTION_DDOT":0},{"OBJECT_NAME":"HAWK-2B","OBJECT_ID":"2021-006CZ","EPOCH":"2026-07-10T13:18:10.132416","CLASSIFICATION_TYPE":"U","MEAN_MOTION":15.35093531,"ECCENTRICITY":0.0008637,"INCLINATION":97.2184,"RA_OF_ASC_NODE":234.3861,"ARG_OF_PERICENTER":115.6136,"MEAN_ANOMALY":244.6001,"EPHEMERIS_TYPE":0,"NORAD_CAT_ID":47508,"ELEMENT_SET_NO":999,"REV_AT_EPOCH":30308,"BSTAR":0.00015392,"MEAN_MOTION_DOT":0.00005168,"MEAN_MOTION_DDOT":0},{"OBJECT_NAME":"HAWK-3B","OBJECT_ID":"2021-059BE","EPOCH":"2026-07-10T00:09:47.277216","CLASSIFICATION_TYPE":"U","MEAN_MOTION":15.71525502,"ECCENTRICITY":0.00040899,"INCLINATION":97.6649,"RA_OF_ASC_NODE":29.9062,"ARG_OF_PERICENTER":217.8107,"MEAN_ANOMALY":142.2868,"EPHEMERIS_TYPE":0,"NORAD_CAT_ID":48931,"ELEMENT_SET_NO":999,"REV_AT_EPOCH":28143,"BSTAR":0.00027709148,"MEAN_MOTION_DOT":0.00035395,"MEAN_MOTION_DDOT":0},{"OBJECT_NAME":"HAWK-3C","OBJECT_ID":"2021-059BX","EPOCH":"2026-07-10T00:09:20.910528","CLASSIFICATION_TYPE":"U","MEAN_MOTION":15.71533406,"ECCENTRICITY":0.00044041,"INCLINATION":97.6774,"RA_OF_ASC_NODE":35.6306,"ARG_OF_PERICENTER":218.4113,"MEAN_ANOMALY":141.6836,"EPHEMERIS_TYPE":0,"NORAD_CAT_ID":48948,"ELEMENT_SET_NO":999,"REV_AT_EPOCH":28143,"BSTAR":0.00029488046,"MEAN_MOTION_DOT":0.00037702,"MEAN_MOTION_DDOT":0},{"OBJECT_NAME":"HAWK-3A","OBJECT_ID":"2021-059CG","EPOCH":"2026-07-10T00:09:11.136960","CLASSIFICATION_TYPE":"U","MEAN_MOTION":15.71532739,"ECCENTRICITY":0.00043448,"INCLINATION":97.6711,"RA_OF_ASC_NODE":32.8165,"ARG_OF_PERICENTER":219.9841,"MEAN_ANOMALY":140.1101,"EPHEMERIS_TYPE":0,"NORAD_CAT_ID":48957,"ELEMENT_SET_NO":999,"REV_AT_EPOCH":28143,"BSTAR":0.00029181336,"MEAN_MOTION_DOT":0.00037305,"MEAN_MOTION_DDOT":0},{"OBJECT_NAME":"HAWK-5C","OBJECT_ID":"2022-057Y","EPOCH":"2026-07-10T09:17:30.818400","CLASSIFICATION_TYPE":"U","MEAN_MOTION":15.52214999,"ECCENTRICITY":0.00032534,"INCLINATION":97.6609,"RA_OF_ASC_NODE":352.5682,"ARG_OF_PERICENTER":5.82,"MEAN_ANOMALY":354.3089,"EPHEMERIS_TYPE":0,"NORAD_CAT_ID":52754,"ELEMENT_SET_NO":999,"REV_AT_EPOCH":22994,"BSTAR":0.00023464286,"MEAN_MOTION_DOT":0.00014129,"MEAN_MOTION_DDOT":0},{"OBJECT_NAME":"HAWK-5B","OBJECT_ID":"2022-057AA","EPOCH":"2026-07-10T09:17:14.311680","CLASSIFICATION_TYPE":"U","MEAN_MOTION":15.52211827,"ECCENTRICITY":0.00039147,"INCLINATION":97.6625,"RA_OF_ASC_NODE":350.9203,"ARG_OF_PERICENTER":352.3729,"MEAN_ANOMALY":7.7463,"EPHEMERIS_TYPE":0,"NORAD_CAT_ID":52756,"ELEMENT_SET_NO":999,"REV_AT_EPOCH":22994,"BSTAR":0.0002196449,"MEAN_MOTION_DOT":0.00013217,"MEAN_MOTION_DDOT":0},{"OBJECT_NAME":"HAWK-5A","OBJECT_ID":"2022-057AB","EPOCH":"2026-07-10T18:33:56.712384","CLASSIFICATION_TYPE":"U","MEAN_MOTION":15.5222071,"ECCENTRICITY":0.0003771,"INCLINATION":97.6616,"RA_OF_ASC_NODE":352.1629,"ARG_OF_PERICENTER":355.6586,"MEAN_ANOMALY":4.4633,"EPHEMERIS_TYPE":0,"NORAD_CAT_ID":52757,"ELEMENT_SET_NO":999,"REV_AT_EPOCH":23000,"BSTAR":0.00020618,"MEAN_MOTION_DOT":0.00012403,"MEAN_MOTION_DDOT":0},{"OBJECT_NAME":"HAWK-6B","OBJECT_ID":"2023-011A","EPOCH":"2026-07-10T11:03:57.121920","CLASSIFICATION_TYPE":"U","MEAN_MOTION":15.23128436,"ECCENTRICITY":0.000342,"INCLINATION":40.497,"RA_OF_ASC_NODE":216.3028,"ARG_OF_PERICENTER":215.7887,"MEAN_ANOMALY":144.2694,"EPHEMERIS_TYPE":0,"NORAD_CAT_ID":55324,"ELEMENT_SET_NO":999,"REV_AT_EPOCH":19139,"BSTAR":0.00013319,"MEAN_MOTION_DOT":0.00003015,"MEAN_MOTION_DDOT":0},{"OBJECT_NAME":"HAWK-6C","OBJECT_ID":"2023-011C","EPOCH":"2026-07-10T12:37:28.223040","CLASSIFICATION_TYPE":"U","MEAN_MOTION":15.23130157,"ECCENTRICITY":0.0003945,"INCLINATION":40.4958,"RA_OF_ASC_NODE":212.7592,"ARG_OF_PERICENTER":205.4892,"MEAN_ANOMALY":154.5723,"EPHEMERIS_TYPE":0,"NORAD_CAT_ID":55326,"ELEMENT_SET_NO":999,"REV_AT_EPOCH":19141,"BSTAR":0.00013646,"MEAN_MOTION_DOT":0.00003094,"MEAN_MOTION_DDOT":0},{"OBJECT_NAME":"HAWK-6A","OBJECT_ID":"2023-011D","EPOCH":"2026-07-10T11:03:06.151104","CLASSIFICATION_TYPE":"U","MEAN_MOTION":15.23128668,"ECCENTRICITY":0.0003464,"INCLINATION":40.4966,"RA_OF_ASC_NODE":214.7687,"ARG_OF_PERICENTER":202.6314,"MEAN_ANOMALY":157.4343,"EPHEMERIS_TYPE":0,"NORAD_CAT_ID":55327,"ELEMENT_SET_NO":999,"REV_AT_EPOCH":19140,"BSTAR":0.00012515,"MEAN_MOTION_DOT":0.00002821,"MEAN_MOTION_DDOT":0},{"OBJECT_NAME":"HAWK-7A","OBJECT_ID":"2023-054P","EPOCH":"2026-07-10T18:13:24.540384","CLASSIFICATION_TYPE":"U","MEAN_MOTION":15.27603523,"ECCENTRICITY":0.0001893,"INCLINATION":97.2675,"RA_OF_ASC_NODE":78.4976,"ARG_OF_PERICENTER":354.6549,"MEAN_ANOMALY":5.467,"EPHEMERIS_TYPE":0,"NORAD_CAT_ID":56191,"ELEMENT_SET_NO":999,"REV_AT_EPOCH":18062,"BSTAR":0.00014211,"MEAN_MOTION_DOT":0.00003763,"MEAN_MOTION_DDOT":0}]}
